GONETS-M 21             
1 47228U 20091B   24355.13558766  .00000046  00000+0  25958-3 0  9996
2 47228  82.4965 279.6304 0014351 306.4913  53.4844 12.42900757183603
GONETS-M 22             
1 47229U 20091C   24355.11040226  .00000040  00000+0  21961-3 0  9996
2 47229  82.5021 280.2915 0020938 284.4977  75.3780 12.42894911183591
CUBEL                   
1 47448U 21006AM  24355.11898185  .00008028  00000+0  30869-3 0  9992
2 47448  97.3167  42.4855 0008371 332.9015  27.1786 15.26639156216332
ASTROCAST-0103          
1 47487U 21006CC  24355.09536192  .00020333  00000+0  56943-3 0  9993
2 47487  97.3289  47.1657 0004236 340.4886  19.6195 15.36648832216600
ASTROCAST-0102          
1 47488U 21006CD  24354.70593619  .00144361  00000+0  16368-2 0  9992
2 47488  97.3116  48.8845 0005028 269.5072  90.5610 15.61890726216761
ASTROCAST-0104          
1 47519U 21006DK  24355.13445827  .00020922  00000+0  60202-3 0  9995
2 47519  97.3224  46.2988 0004530 315.9857  44.1025 15.35793484216590
ARKTIKA-M 1             
1 47719U 21016A   24346.21013880  .00000144  00000+0  00000+0 0  9997
2 47719  63.1345 131.0499 7012162 268.4789  17.4348  2.00604149 27701
STARLINK-2342           
1 47883U 21021Z   24354.77796712 -.00002088  00000+0 -12128-3 0  9996
2 47883  53.0542 113.9046 0001228  98.8305 261.2823 15.06403287209237
GRUS-1B                 
1 47934U 21022C   24355.13535266  .00002262  00000+0  19602-3 0  9996
2 47934  97.6063 243.3623 0017499 354.4147   5.6877 14.97974120204431
2021-022F               
1 47937U 21022F   24355.12022464  .00010570  00000+0  47475-3 0  9999
2 47937  97.4412 248.0745 0010983 208.1775 151.8868 15.21288335206665
CANYVAL-C (PUMBAA)      
1 47938U 21022G   24355.13567358  .00055422  00000+0  11825-2 0  9991
2 47938  97.4356 254.8188 0008138 170.7324 189.4076 15.44671286207140
WILDTRACKCUBE-SIMBA     
1 47941U 21022K   24355.11604541  .00023852  00000+0  76110-3 0  9990
2 47941  97.4400 251.2671 0010636 198.5915 161.4940 15.32444672206820
HIBER-3                 
1 47942U 21022L   24354.66475323  .00186972  00000+0  16139-2 0  9991
2 47942  97.4306 259.8232 0008109 123.1318 237.0722 15.68621268207383
ELSA-D                  
1 47944U 21022N   24354.70603220  .00034985  00000+0  86912-3 0  9990
2 47944  97.4441 255.8068 0008727 166.7058 193.4419 15.40206510207116
UNISAT-7                
1 47945U 21022P   24354.65249517  .00012791  00000+0  53484-3 0  9999
2 47945  97.4389 248.1325 0011287 204.5919 155.4781 15.23673740206484
2021-022Q               
1 47946U 21022Q   24355.15918680  .00031330  00000+0  86534-3 0  9992
2 47946  97.4413 254.2993 0009304 170.1166 190.0263 15.36960593207054
NANOSATC-BR2            
1 47950U 21022U   24355.12618165  .00311856  00000+0  17215-2 0  9992
2 47950  97.4240 261.2717 0008891 117.9832 242.2336 15.78749704207526
CUBESX-SIRIUS-HSE       
1 47951U 21022V   24355.14016120  .00055256  00000+0  12196-2 0  9990
2 47951  97.4394 254.8109 0008411 174.3502 185.7843 15.43664340207066
CUBESX-HSE              
1 47952U 21022W   24355.13305235  .00053560  00000+0  11694-2 0  9996
2 47952  97.4389 254.9552 0008550 172.7761 187.3612 15.43993867207079
2021-022X               
1 47953U 21022X   24355.10919210  .00018835  00000+0  67749-3 0  9997
2 47953  97.4375 249.1232 0011318 207.9510 152.1123 15.28600985206441
KSU-CUBESAT             
1 47954U 21022Y   24354.68447920  .00081016  00000+0  12447-2 0  9999
2 47954  97.4398 257.3280 0007544 152.6066 207.5586 15.53954759206907
CHALLENGE ONE           
1 47956U 21022AA  24355.16969494  .00063059  00000+0  12122-2 0  9997
2 47956  97.4383 255.7860 0008072 166.9272 193.2188 15.47686664206913
2021-022AC              
1 47958U 21022AC  24355.11907663  .00021670  00000+0  74311-3 0  9996
2 47958  97.4342 249.5042 0011172 204.8739 155.1964 15.30133331205567
GRBALPHA                
1 47959U 21022AD  24355.15628468  .00051399  00000+0  11237-2 0  9992
2 47959  97.4390 255.1465 0008412 172.8689 187.2681 15.43965955205903
ORBICRAFT-ZORKY         
1 47960U 21022AE  24355.13045625  .00073029  00000+0  12887-2 0  9996
2 47960  97.4416 257.4722 0007423 159.4533 200.7019 15.50104738206713
GLOBAL-9                
1 47971U 21023G   24355.14284118  .00024592  00000+0  64947-3 0  9998
2 47971  44.9876  38.6111 0011501  89.8023 270.4181 15.38011666211066
BEESAT-8                
1 48085U 21022AP  24354.69361442  .00198472  00000+0  18391-2 0  9999
2 48085  97.4737 261.8158 0008604 119.9199 240.2917 15.66826553206507
2021-033E               
1 48252U 21033E   24355.17464714  .02160503  23407-5  91515-3 0  9995
2 48252  97.2206  75.5176 0005677 266.8208  93.2433 16.22907259204381
AII-BRAVO               
1 48270U 21034C   24355.15196789  .00006476  00000+0  57482-3 0  9997
2 48270  97.6311  51.7348 0002452 280.7715  79.3230 14.96498039198040
TYVAK-182A              
1 48271U 21034D   24355.12897439  .00007799  00000+0  66315-3 0  9999
2 48271  97.6322  53.1630 0001551  22.3600 337.7690 14.98107279198131
CSS (TIANHE)            
1 48274U 21035A   24355.12917529  .00023296  00000+0  28225-3 0  9994
2 48274  41.4678  29.9781 0002008 248.8424 111.2200 15.60096743208171
TYVAK-0130              
1 48606U 21041BF  24354.54275203  .00015417  00000+0  82365-3 0  9992
2 48606  53.0336  14.2837 0009649 288.4521  71.5423 15.15260916197420
HAIYANG-2D              
1 48621U 21043A   24355.12958008  .00000012  00000+0  85087-4 0  9997
2 48621  65.9962 219.2151 0009945 258.7020 101.2931 13.83369551181339
2021-050D               
1 48843U 21050D   24355.13750958  .00010389  00000+0  44843-3 0  9998
2 48843  97.3867  70.7167 0006077 274.5411  85.5131 15.22689298196136
BRIK-II                 
1 48876U 21058F   24354.94772978  .00026171  00000+0  50278-3 0  9991
2 48876  60.6675 115.7886 0024064 115.0317 245.3284 15.47577622193686
TYVAK-0173              
1 48892U 21059P   24355.03935939  .00003218  00000+0  44735-3 0  9997
2 48892  95.9793 197.5059 0011764  74.2071 286.0441 14.78235750187745
TUBIN                   
1 48900U 21059X   24355.09459335  .00031712  00000+0  72195-3 0  9995
2 48900  97.6625 146.9937 0005400 144.2411 215.9198 15.42889124193454
MANDRAKE 2 ABLE         
1 48907U 21059AE  24354.38157922  .00017371  00000+0  55445-3 0  9994
2 48907  97.6681 142.4133 0007415 158.1979 201.9579 15.32535654193096
MANDRAKE 2 BAKER        
1 48908U 21059AF  24354.98632095  .00016652  00000+0  51824-3 0  9998
2 48908  97.6694 143.8124 0007007 141.7614 218.4125 15.33356539193226
PACE-1                  
1 48909U 21059AG  24354.98943910  .00020310  00000+0  57220-3 0  9992
2 48909  97.6586 143.5451 0006796 140.5846 219.5892 15.36455946193302
YAM-2                   
1 48911U 21059AJ  24354.84796400  .00043645  00000+0  81748-3 0  9998
2 48911  97.6620 150.3053 0005184 129.3864 230.7845 15.48547181193627
YAM-3                   
1 48915U 21059AN  24354.65767422  .00014311  00000+0  46599-3 0  9996
2 48915  97.6640 142.6662 0008290 142.1515 218.0311 15.31933972193154
FARADAY_PHOENIX         
1 48924U 21059AX  24354.68759285  .00016195  00000+0  47879-3 0  9991
2 48924  97.6670 145.8926 0012149 138.6988 221.5176 15.34942378193327
DEMO8 (TENZING)         
1 48951U 21059CA  24354.89355497  .00015520  00000+0  48121-3 0  9993
2 48951  97.6728 145.9497 0011518 148.8132 211.3795 15.33450959193320
ASTROCAST-0201          
1 48954U 21059CD  24354.40076024  .00024748  00000+0  60046-3 0  9991
2 48954  97.6447 147.0147 0008951 144.0150 216.1700 15.40995362193465
ASTROCAST-0203          
1 48955U 21059CE  24355.00295905  .00030965  00000+0  74706-3 0  9996
2 48955  97.6443 147.1725 0009815 137.7871 222.4132 15.41112369193552
ASTROCAST-0205          
1 48960U 21059CK  24354.96276485  .00023792  00000+0  57659-3 0  9996
2 48960  97.6429 147.4382 0009672 113.6233 246.6029 15.41032372193558
NAPA-2                  
1 48963U 21059CN  24355.14715946  .00020687  00000+0  60150-3 0  9990
2 48963  97.6599 142.7943 0008856 141.3117 218.8762 15.35446549193229
W-CUBE                  
1 48965U 21059CQ  24354.39773217  .00041459  00000+0  85849-3 0  9995
2 48965  97.6606 146.9784 0006173 130.2363 229.9426 15.45637000193381
JILIN-1 GAOFEN 3D01     
1 49004U 21061B   24353.53132402  .00041012  00000+0  99210-3 0  9995
2 49004  97.3715  58.8966 0007324 145.9788 214.1930 15.40991215191919
JILIN-1 GAOFEN 3D03     
1 49006U 21061D   24355.16577871  .00022215  00000+0  74493-3 0  9991
2 49006  97.3705  54.6396 0006964 258.7155 101.3304 15.30891636191783
XINGSHIDAI 10           
1 49007U 21061E   24355.12045014  .00022455  00000+0  74785-3 0  9997
2 49007  97.3702  54.6227 0007790 239.0567 120.9909 15.31104072191770
FENGYUN 3E              
1 49008U 21062A   24355.18384519  .00000071  00000+0  54003-4 0  9993
2 49008  98.7386 354.0346 0001249 174.5656 185.5534 14.19824494179384
ISS (NAUKA)             
1 49044U 21066A   24354.82393083  .00013426  00000+0  23634-3 0  9996
2 49044  51.6381 115.6359 0007835 359.4916   0.6064 15.50748427192154
BRO-4                   
1 49066U 21073A   24355.19151500  .00157295  00000+0  15052-2 0  9992
2 49066  97.4283  75.5755 0009659 292.7680  67.2558 15.66137469185473
LEDSAT                  
1 49069U 21073D   24355.10492602  .00034198  00000+0  89048-3 0  9990
2 49069  97.4146  66.3713 0014034 344.9348  15.1477 15.38708992184891
STARLINK-3100           
1 49144U 21082Q   24354.67948782 -.00000331  00000+0 -19956-4 0  9996
2 49144  70.0005 336.4729 0002602 272.2402  87.8459 14.98335159179320
CUTE                    
1 49263U 21088D   24354.75191016  .00038678  00000+0  11306-2 0  9995
2 49263  97.4740  61.0452 0011351 143.8932 216.3080 15.35119552177941
2021-091B               
1 49316U 21091B   24355.15282097  .00006224  00000+0  30283-3 0  9991
2 49316  97.4486 179.9802 0009704  93.3915 266.8430 15.18706815176431
